{"type": "FeatureCollection", "features": [ {"type": "Feature", "properties": {"norad_id": 30035, "name": "FENGYUN 1C DEB", "group": "fengyun-1c-debris", "lat": -4.681390604367626, "lon": 86.93735580445666, "alt_km": 834.0915255733617, "timestamp": "2025-12-18T10:51:26.079893+00:00", "meta": {"OBJECT_NAME": "FENGYUN 1C DEB", "OBJECT_ID": "1999-025NL", "EPOCH": "2025-12-17T17:32:31.109568", "MEAN_MOTION": 14.36977291, "ECCENTRICITY": 0.01154445, "INCLINATION": 99.2711, "RA_OF_ASC_NODE": 266.927, "ARG_OF_PERICENTER": 47.5013, "MEAN_ANOMALY": 6.1072, "EPHEMERIS_TYPE": 0, "CLASSIFICATION_TYPE": "U", "NORAD_CAT_ID": 30035, "ELEMENT_SET_NO": 999, "REV_AT_EPOCH": 99195, "BSTAR": 6.3082189e-05, "MEAN_MOTION_DOT": 1.49e-06, "MEAN_MOTION_DDOT": 0}, "tle": {"line1": "1 30035U 99025NL  25351.73091562  .00000149  00000+0  63082-4 0  9991", "line2": "2 30035  99.2711 266.9270 0115444  47.5013   6.1072 14.36977291991951"}}, "geometry": {"type": "Point", "coordinates": [86.93735580445666, -4.681390604367626]}}, {"type": "Feature", "properties": {"norad_id": 30036, "name": "FENGYUN 1C DEB", "group": "fengyun-1c-debris", "lat": 75.69161744577967, "lon": -125.91650142436391, "alt_km": 724.7874551644309, "timestamp": "2025-12-18T10:51:26.079903+00:00", "meta": {"OBJECT_NAME": "FENGYUN 1C DEB", "OBJECT_ID": "1999-025NM", "EPOCH": "2025-12-17T16:40:56.606304", "MEAN_MOTION": 14.46198462, "ECCENTRICITY": 0.01902167, "INCLINATION": 98.2524, "RA_OF_ASC_NODE": 18.6638, "ARG_OF_PERICENTER": 192.5121, "MEAN_ANOMALY": 291.0081, "EPHEMERIS_TYPE": 0, "CLASSIFICATION_TYPE": "U", "NORAD_CAT_ID": 30036, "ELEMENT_SET_NO": 999, "REV_AT_EPOCH": 99248, "BSTAR": 0.00029181617, "MEAN_MOTION_DOT": 1.255e-05, "MEAN_MOTION_DDOT": 0}, "tle": {"line1": "1 30036U 99025NM  25351.69509961  .00001255  00000+0  29182-3 0  9995", "line2": "2 30036  98.2524  18.6638 0190216 192.5121 291.0081 14.46198462992484"}}, "geometry": {"type": "Point", "coordinates": [-125.91650142436391, 75.69161744577967]}}, {"type": "Feature", "properties": {"norad_id": 30037, "name": "FENGYUN 1C DEB", "group": "fengyun-1c-debris", "lat": -67.79346826034302, "lon": 126.82172143193885, "alt_km": 891.3332107900014, "timestamp": "2025-12-18T10:51:26.079914+00:00", "meta": {"OBJECT_NAME": "FENGYUN 1C DEB", "OBJECT_ID": "1999-025NN", "EPOCH": "2025-12-17T22:13:33.593664", "MEAN_MOTION": 14.34125652, "ECCENTRICITY": 0.01742129, "INCLINATION": 98.3838, "RA_OF_ASC_NODE": 327.4884, "ARG_OF_PERICENTER": 39.7319, "MEAN_ANOMALY": 14.9788, "EPHEMERIS_TYPE": 0, "CLASSIFICATION_TYPE": "U", "NORAD_CAT_ID": 30037, "ELEMENT_SET_NO": 999, "REV_AT_EPOCH": 98862, "BSTAR": 0.00018870785, "MEAN_MOTION_DOT": 5.8e-06, "MEAN_MOTION_DDOT": 0}, "tle": {"line1": "1 30037U 99025NN  25351.92608326  .00000580  00000+0  18871-3 0  9990", "line2": "2 30037  98.3838 327.4884 0174212  39.7319  14.9788 14.34125652988622"}}, "geometry": {"type": "Point", "coordinates": [126.82172143193885, -67.79346826034302]}}, {"type": "Feature", "properties": {"norad_id": 30038, "name": "FENGYUN 1C DEB", "group": "fengyun-1c-debris", "lat": 24.721890736751934, "lon": -23.935091643573827, "alt_km": 666.0285975700026, "timestamp": "2025-12-18T10:51:26.079924+00:00", "meta": {"OBJECT_NAME": "FENGYUN 1C DEB", "OBJECT_ID": "1999-025NP", "EPOCH": "2025-12-16T22:17:55.320864", "MEAN_MOTION": 14.39303712, "ECCENTRICITY": 0.02580048, "INCLINATION": 98.3685, "RA_OF_ASC_NODE": 338.4623, "ARG_OF_PERICENTER": 90.2684, "MEAN_ANOMALY": 329.1359, "EPHEMERIS_TYPE": 0, "CLASSIFICATION_TYPE": "U", "NORAD_CAT_ID": 30038, "ELEMENT_SET_NO": 999, "REV_AT_EPOCH": 98951, "BSTAR": 0.00021649572, "MEAN_MOTION_DOT": 9.43e-06, "MEAN_MOTION_DDOT": 0}, "tle": {"line1": "1 30038U 99025NP  25350.92911251  .00000943  00000+0  21650-3 0  9996", "line2": "2 30038  98.3685 338.4623 0258004  90.2684 329.1359 14.39303712989519"}}, "geometry": {"type": "Point", "coordinates": [-23.935091643573827, 24.721890736751934]}}, {"type": "Feature", "properties": {"norad_id": 30040, "name": "FENGYUN 1C DEB", "group": "fengyun-1c-debris", "lat": 68.08270920604217, "lon": -150.32180931293632, "alt_km": 784.1986404944364, "timestamp": "2025-12-18T10:51:26.079949+00:00", "meta": {"OBJECT_NAME": "FENGYUN 1C DEB", "OBJECT_ID": "1999-025NR", "EPOCH": "2025-12-17T14:52:30.448704", "MEAN_MOTION": 14.37165726, "ECCENTRICITY": 0.00322803, "INCLINATION": 98.2331, "RA_OF_ASC_NODE": 7.7903, "ARG_OF_PERICENTER": 297.9762, "MEAN_ANOMALY": 187.1821, "EPHEMERIS_TYPE": 0, "CLASSIFICATION_TYPE": "U", "NORAD_CAT_ID": 30040, "ELEMENT_SET_NO": 999, "REV_AT_EPOCH": 97998, "BSTAR": 0.001308807, "MEAN_MOTION_DOT": 3.876e-05, "MEAN_MOTION_DDOT": 0}, "tle": {"line1": "1 30040U 99025NR  25351.61979686  .00003876  00000+0  13088-2 0  9995", "line2": "2 30040  98.2331   7.7903 0032280 297.9762 187.1821 14.37165726979980"}}, "geometry": {"type": "Point", "coordinates": [-150.32180931293632, 68.08270920604217]}}, {"type": "Feature", "properties": {"norad_id": 30041, "name": "FENGYUN 1C DEB", "group": "fengyun-1c-debris", "lat": -74.6828079322716, "lon": 136.81083401454254, "alt_km": 851.6095649870831, "timestamp": "2025-12-18T10:51:26.079962+00:00", "meta": {"OBJECT_NAME": "FENGYUN 1C DEB", "OBJECT_ID": "1999-025NS", "EPOCH": "2025-12-17T06:35:58.208928", "MEAN_MOTION": 14.13193654, "ECCENTRICITY": 0.00349947, "INCLINATION": 99.4671, "RA_OF_ASC_NODE": 98.0338, "ARG_OF_PERICENTER": 204.5614, "MEAN_ANOMALY": 210.3846, "EPHEMERIS_TYPE": 0, "CLASSIFICATION_TYPE": "U", "NORAD_CAT_ID": 30041, "ELEMENT_SET_NO": 999, "REV_AT_EPOCH": 97351, "BSTAR": 0.00041349475, "MEAN_MOTION_DOT": 7.29e-06, "MEAN_MOTION_DDOT": 0}, "tle": {"line1": "1 30041U 99025NS  25351.27497927  .00000729  00000+0  41349-3 0  9997", "line2": "2 30041  99.4671  98.0338 0034994 204.5614 210.3846 14.13193654973514"}}, "geometry": {"type": "Point", "coordinates": [136.81083401454254, -74.6828079322716]}}, {"type": "Feature", "properties": {"norad_id": 30043, "name": "FENGYUN 1C DEB", "group": "fengyun-1c-debris", "lat": 30.058471939780517, "lon": -84.6495404918676, "alt_km": 642.7533271330585, "timestamp": "2025-12-18T10:51:26.079973+00:00", "meta": {"OBJECT_NAME": "FENGYUN 1C DEB", "OBJECT_ID": "1999-025NU", "EPOCH": "2025-12-17T05:30:13.111488", "MEAN_MOTION": 14.23596953, "ECCENTRICITY": 0.02836527, "INCLINATION": 98.6276, "RA_OF_ASC_NODE": 89.1085, "ARG_OF_PERICENTER": 117.9522, "MEAN_ANOMALY": 245.0678, "EPHEMERIS_TYPE": 0, "CLASSIFICATION_TYPE": "U", "NORAD_CAT_ID": 30043, "ELEMENT_SET_NO": 999, "REV_AT_EPOCH": 97409, "BSTAR": 0.0005891267, "MEAN_MOTION_DOT": 1.987e-05, "MEAN_MOTION_DDOT": 0}, "tle": {"line1": "1 30043U 99025NU  25351.22931842  .00001987  00000+0  58913-3 0  9995", "line2": "2 30043  98.6276  89.1085 0283652 117.9522 245.0678 14.23596953974092"}}, "geometry": {"type": "Point", "coordinates": [-84.6495404918676, 30.058471939780517]}}, {"type": "Feature", "properties": {"norad_id": 30044, "name": "FENGYUN 1C DEB", "group": "fengyun-1c-debris", "lat": -48.13747254136349, "lon": 83.33377575993805, "alt_km": 719.1119126426793, "timestamp": "2025-12-18T10:51:26.079984+00:00", "meta": {"OBJECT_NAME": "FENGYUN 1C DEB", "OBJECT_ID": "1999-025NV", "EPOCH": "2025-12-17T17:15:32.565024", "MEAN_MOTION": 14.50720681, "ECCENTRICITY": 0.00797276, "INCLINATION": 98.212, "RA_OF_ASC_NODE": 271.8925, "ARG_OF_PERICENTER": 151.7128, "MEAN_ANOMALY": 208.8431, "EPHEMERIS_TYPE": 0, "CLASSIFICATION_TYPE": "U", "NORAD_CAT_ID": 30044, "ELEMENT_SET_NO": 999, "REV_AT_EPOCH": 98111, "BSTAR": 0.0011703278, "MEAN_MOTION_DOT": 4.75e-05, "MEAN_MOTION_DDOT": 0}, "tle": {"line1": "1 30044U 99025NV  25351.71912691  .00004750  00000+0  11703-2 0  9997", "line2": "2 30044  98.2120 271.8925 0079727 151.7128 208.8431 14.50720681981116"}}, "geometry": {"type": "Point", "coordinates": [83.33377575993805, -48.13747254136349]}}, {"type": "Feature", "properties": {"norad_id": 30045, "name": "FENGYUN 1C DEB", "group": "fengyun-1c-debris", "lat": 24.56120760050472, "lon": -147.51511207048068, "alt_km": 782.3578963995024, "timestamp": "2025-12-18T10:51:26.079995+00:00", "meta": {"OBJECT_NAME": "FENGYUN 1C DEB", "OBJECT_ID": "1999-025NW", "EPOCH": "2025-12-17T16:07:31.270944", "MEAN_MOTION": 14.21646045, "ECCENTRICITY": 0.00944592, "INCLINATION": 99.1788, "RA_OF_ASC_NODE": 27.4358, "ARG_OF_PERICENTER": 99.4027, "MEAN_ANOMALY": 22.3777, "EPHEMERIS_TYPE": 0, "CLASSIFICATION_TYPE": "U", "NORAD_CAT_ID": 30045, "ELEMENT_SET_NO": 999, "REV_AT_EPOCH": 96758, "BSTAR": 0.0015344695, "MEAN_MOTION_DOT": 3.478e-05, "MEAN_MOTION_DDOT": 0}, "tle": {"line1": "1 30045U 99025NW  25351.67188971  .00003478  00000+0  15345-2 0  9991", "line2": "2 30045  99.1788  27.4358 0094459  99.4027  22.3777 14.21646045967583"}}, "geometry": {"type": "Point", "coordinates": [-147.51511207048068, 24.56120760050472]}}, {"type": "Feature", "properties": {"norad_id": 30047, "name": "FENGYUN 1C DEB", "group": "fengyun-1c-debris", "lat": -68.51213865402457, "lon": -56.5256151823743, "alt_km": 869.5237973690491, "timestamp": "2025-12-18T10:51:26.080005+00:00", "meta": {"OBJECT_NAME": "FENGYUN 1C DEB", "OBJECT_ID": "1999-025NY", "EPOCH": "2025-12-17T22:13:33.066624", "MEAN_MOTION": 13.94364446, "ECCENTRICITY": 0.01256926, "INCLINATION": 99.9192, "RA_OF_ASC_NODE": 149.3005, "ARG_OF_PERICENTER": 308.9638, "MEAN_ANOMALY": 182.5206, "EPHEMERIS_TYPE": 0, "CLASSIFICATION_TYPE": "U", "NORAD_CAT_ID": 30047, "ELEMENT_SET_NO": 999, "REV_AT_EPOCH": 95988, "BSTAR": 0.00047265873, "MEAN_MOTION_DOT": 6.2e-06, "MEAN_MOTION_DDOT": 0}, "tle": {"line1": "1 30047U 99025NY  25351.92607716  .00000620  00000+0  47266-3 0  9998", "line2": "2 30047  99.9192 149.3005 0125692 308.9638 182.5206 13.94364446959886"}}, "geometry": {"type": "Point", "coordinates": [-56.5256151823743, -68.51213865402457]}}]}